[{"OBJECT_NAME":"YAOGAN-30 03A","OBJECT_ID":"2017-075A","EPOCH":"2026-03-09T16:17:14.366400","MEAN_MOTION":15.02242801,"ECCENTRICITY":0.00017413,"INCLINATION":34.9939,"RA_OF_ASC_NODE":156.9097,"ARG_OF_PERICENTER":176.2032,"MEAN_ANOMALY":183.8689,"EPHEMERIS_TYPE":0,"CLASSIFICATION_TYPE":"U","NORAD_CAT_ID":43028,"ELEMENT_SET_NO":999,"REV_AT_EPOCH":45227,"BSTAR":0.00031198587,"MEAN_MOTION_DOT":4.172e-5,"MEAN_MOTION_DDOT":0},{"OBJECT_NAME":"CZ-6A R\/B","OBJECT_ID":"2022-031C","EPOCH":"2026-03-09T19:50:55.360896","MEAN_MOTION":15.07476837,"ECCENTRICITY":0.00174842,"INCLINATION":97.8104,"RA_OF_ASC_NODE":273.2347,"ARG_OF_PERICENTER":181.6412,"MEAN_ANOMALY":178.4761,"EPHEMERIS_TYPE":0,"CLASSIFICATION_TYPE":"U","NORAD_CAT_ID":52152,"ELEMENT_SET_NO":999,"REV_AT_EPOCH":21633,"BSTAR":0.00020233161,"MEAN_MOTION_DOT":3.012e-5,"MEAN_MOTION_DDOT":0}]
